[
    {
        "OBJECT_NAME": "COSMOS 2522 [GLONASS-M]",
        "OBJECT_ID": "2017-055A",
        "EPOCH": "2026-07-10T02:47:54.879360",
        "MEAN_MOTION": 2.13101919,
        "ECCENTRICITY": 0.00109107,
        "INCLINATION": 64.0805,
        "RA_OF_ASC_NODE": 191.1038,
        "ARG_OF_PERICENTER": 240.8947,
        "MEAN_ANOMALY": 119.0275,
        "EPHEMERIS_TYPE": 0,
        "CLASSIFICATION_TYPE": "U",
        "NORAD_CAT_ID": 42939,
        "ELEMENT_SET_NO": 999,
        "REV_AT_EPOCH": 6846,
        "BSTAR": 0,
        "MEAN_MOTION_DOT": 1.22e-06,
        "MEAN_MOTION_DDOT": 0
    },
    {
        "OBJECT_NAME": "COSMOS 2527 [GLONASS-M]",
        "OBJECT_ID": "2018-053A",
        "EPOCH": "2026-07-09T03:21:36.783648",
        "MEAN_MOTION": 2.1310222,
        "ECCENTRICITY": 0.00066656,
        "INCLINATION": 65.5893,
        "RA_OF_ASC_NODE": 73.1758,
        "ARG_OF_PERICENTER": 231.8684,
        "MEAN_ANOMALY": 128.1313,
        "EPHEMERIS_TYPE": 0,
        "CLASSIFICATION_TYPE": "U",
        "NORAD_CAT_ID": 43508,
        "ELEMENT_SET_NO": 999,
        "REV_AT_EPOCH": 6274,
        "BSTAR": 0,
        "MEAN_MOTION_DOT": -2.4e-07,
        "MEAN_MOTION_DDOT": 0
    },
    {
        "OBJECT_NAME": "COSMOS 2529 [GLONASS-M]",
        "OBJECT_ID": "2018-086A",
        "EPOCH": "2026-07-10T04:11:44.716704",
        "MEAN_MOTION": 2.13102033,
        "ECCENTRICITY": 0.00121125,
        "INCLINATION": 64.2967,
        "RA_OF_ASC_NODE": 191.818,
        "ARG_OF_PERICENTER": 256.3203,
        "MEAN_ANOMALY": 103.5775,
        "EPHEMERIS_TYPE": 0,
        "CLASSIFICATION_TYPE": "U",
        "NORAD_CAT_ID": 43687,
        "ELEMENT_SET_NO": 999,
        "REV_AT_EPOCH": 5977,
        "BSTAR": 0,
        "MEAN_MOTION_DOT": 1.22e-06,
        "MEAN_MOTION_DDOT": 0
    },
    {
        "OBJECT_NAME": "COSMOS 2534 [GLONASS-M]",
        "OBJECT_ID": "2019-030A",
        "EPOCH": "2026-07-10T03:03:06.483168",
        "MEAN_MOTION": 2.13102136,
        "ECCENTRICITY": 0.00135098,
        "INCLINATION": 64.3705,
        "RA_OF_ASC_NODE": 191.8439,
        "ARG_OF_PERICENTER": 274.9524,
        "MEAN_ANOMALY": 182.9689,
        "EPHEMERIS_TYPE": 0,
        "CLASSIFICATION_TYPE": "U",
        "NORAD_CAT_ID": 44299,
        "ELEMENT_SET_NO": 999,
        "REV_AT_EPOCH": 5541,
        "BSTAR": 0,
        "MEAN_MOTION_DOT": 1.22e-06,
        "MEAN_MOTION_DDOT": 0
    },
    {
        "OBJECT_NAME": "COSMOS 2544 [GLONASS-M]",
        "OBJECT_ID": "2019-088A",
        "EPOCH": "2026-07-10T00:33:19.156896",
        "MEAN_MOTION": 2.13103012,
        "ECCENTRICITY": 0.00123374,
        "INCLINATION": 65.5773,
        "RA_OF_ASC_NODE": 72.9693,
        "ARG_OF_PERICENTER": 255.3467,
        "MEAN_ANOMALY": 104.5773,
        "EPHEMERIS_TYPE": 0,
        "CLASSIFICATION_TYPE": "U",
        "NORAD_CAT_ID": 44850,
        "ELEMENT_SET_NO": 999,
        "REV_AT_EPOCH": 5120,
        "BSTAR": 0,
        "MEAN_MOTION_DOT": -2.4e-07,
        "MEAN_MOTION_DDOT": 0
    },
    {
        "OBJECT_NAME": "COSMOS 2545 [GLONASS-M]",
        "OBJECT_ID": "2020-018A",
        "EPOCH": "2026-07-07T20:55:22.502208",
        "MEAN_MOTION": 2.13102711,
        "ECCENTRICITY": 0.00092133,
        "INCLINATION": 64.3418,
        "RA_OF_ASC_NODE": 311.6924,
        "ARG_OF_PERICENTER": 230.0449,
        "MEAN_ANOMALY": 129.887,
        "EPHEMERIS_TYPE": 0,
        "CLASSIFICATION_TYPE": "U",
        "NORAD_CAT_ID": 45358,
        "ELEMENT_SET_NO": 999,
        "REV_AT_EPOCH": 4910,
        "BSTAR": 0,
        "MEAN_MOTION_DOT": -5.2e-07,
        "MEAN_MOTION_DDOT": 0
    },
    {
        "OBJECT_NAME": "COSMOS 2547 [GLONASS-K]",
        "OBJECT_ID": "2020-075A",
        "EPOCH": "2026-07-08T12:44:16.154592",
        "MEAN_MOTION": 2.13100166,
        "ECCENTRICITY": 0.0009456,
        "INCLINATION": 64.6013,
        "RA_OF_ASC_NODE": 191.7631,
        "ARG_OF_PERICENTER": 239.773,
        "MEAN_ANOMALY": 120.1659,
        "EPHEMERIS_TYPE": 0,
        "CLASSIFICATION_TYPE": "U",
        "NORAD_CAT_ID": 46805,
        "ELEMENT_SET_NO": 999,
        "REV_AT_EPOCH": 4436,
        "BSTAR": 0,
        "MEAN_MOTION_DOT": 1.26e-06,
        "MEAN_MOTION_DDOT": 0
    },
    {
        "OBJECT_NAME": "COSMOS 2557 [GLONASS-K]",
        "OBJECT_ID": "2022-075A",
        "EPOCH": "2026-07-07T06:53:27.542976",
        "MEAN_MOTION": 2.13102498,
        "ECCENTRICITY": 0.00105957,
        "INCLINATION": 64.2857,
        "RA_OF_ASC_NODE": 313.7776,
        "ARG_OF_PERICENTER": 272.6042,
        "MEAN_ANOMALY": 87.2866,
        "EPHEMERIS_TYPE": 0,
        "CLASSIFICATION_TYPE": "U",
        "NORAD_CAT_ID": 52984,
        "ELEMENT_SET_NO": 999,
        "REV_AT_EPOCH": 3114,
        "BSTAR": 0,
        "MEAN_MOTION_DOT": -5e-07,
        "MEAN_MOTION_DDOT": 0
    },
    {
        "OBJECT_NAME": "COSMOS 2559 [GLONASS-K]",
        "OBJECT_ID": "2022-130A",
        "EPOCH": "2026-07-08T23:36:44.543232",
        "MEAN_MOTION": 2.13101645,
        "ECCENTRICITY": 0.00129932,
        "INCLINATION": 64.257,
        "RA_OF_ASC_NODE": 313.8003,
        "ARG_OF_PERICENTER": 180.3657,
        "MEAN_ANOMALY": 179.6426,
        "EPHEMERIS_TYPE": 0,
        "CLASSIFICATION_TYPE": "U",
        "NORAD_CAT_ID": 54031,
        "ELEMENT_SET_NO": 999,
        "REV_AT_EPOCH": 2915,
        "BSTAR": 0,
        "MEAN_MOTION_DOT": -5.7e-07,
        "MEAN_MOTION_DDOT": 0
    },
    {
        "OBJECT_NAME": "COSMOS 2564 [GLONASS-M]",
        "OBJECT_ID": "2022-161A",
        "EPOCH": "2026-07-08T19:50:54.494304",
        "MEAN_MOTION": 2.13101979,
        "ECCENTRICITY": 0.00122533,
        "INCLINATION": 64.7436,
        "RA_OF_ASC_NODE": 191.9933,
        "ARG_OF_PERICENTER": 225.0747,
        "MEAN_ANOMALY": 134.8592,
        "EPHEMERIS_TYPE": 0,
        "CLASSIFICATION_TYPE": "U",
        "NORAD_CAT_ID": 54377,
        "ELEMENT_SET_NO": 999,
        "REV_AT_EPOCH": 2809,
        "BSTAR": 0,
        "MEAN_MOTION_DOT": 1.27e-06,
        "MEAN_MOTION_DDOT": 0
    },
    {
        "OBJECT_NAME": "COSMOS 2569 [GLONASS-K2]",
        "OBJECT_ID": "2023-114A",
        "EPOCH": "2026-07-08T08:52:52.991328",
        "MEAN_MOTION": 2.13103725,
        "ECCENTRICITY": 0.00099053,
        "INCLINATION": 65.314,
        "RA_OF_ASC_NODE": 71.9064,
        "ARG_OF_PERICENTER": 296.342,
        "MEAN_ANOMALY": 63.6175,
        "EPHEMERIS_TYPE": 0,
        "CLASSIFICATION_TYPE": "U",
        "NORAD_CAT_ID": 57517,
        "ELEMENT_SET_NO": 999,
        "REV_AT_EPOCH": 2271,
        "BSTAR": 0,
        "MEAN_MOTION_DOT": -2.4e-07,
        "MEAN_MOTION_DDOT": 0
    },
    {
        "OBJECT_NAME": "COSMOS 2584 [GLONASS-K2]",
        "OBJECT_ID": "2025-042A",
        "EPOCH": "2026-07-04T12:04:02.572320",
        "MEAN_MOTION": 2.13103855,
        "ECCENTRICITY": 0.00060594,
        "INCLINATION": 65.0947,
        "RA_OF_ASC_NODE": 72.2135,
        "ARG_OF_PERICENTER": 222.1818,
        "MEAN_ANOMALY": 137.8396,
        "EPHEMERIS_TYPE": 0,
        "CLASSIFICATION_TYPE": "U",
        "NORAD_CAT_ID": 63130,
        "ELEMENT_SET_NO": 999,
        "REV_AT_EPOCH": 1041,
        "BSTAR": 0,
        "MEAN_MOTION_DOT": -1e-07,
        "MEAN_MOTION_DDOT": 0
    },
    {
        "OBJECT_NAME": "COSMOS 2596 [GLONASS-K1]",
        "OBJECT_ID": "2025-206B",
        "EPOCH": "2026-07-09T12:13:03.387936",
        "MEAN_MOTION": 2.13100694,
        "ECCENTRICITY": 0.00111636,
        "INCLINATION": 64.6203,
        "RA_OF_ASC_NODE": 314.209,
        "ARG_OF_PERICENTER": 308.0791,
        "MEAN_ANOMALY": 48.6851,
        "EPHEMERIS_TYPE": 0,
        "CLASSIFICATION_TYPE": "U",
        "NORAD_CAT_ID": 65590,
        "ELEMENT_SET_NO": 999,
        "REV_AT_EPOCH": 638,
        "BSTAR": 0,
        "MEAN_MOTION_DOT": -5.9e-07,
        "MEAN_MOTION_DDOT": 0
    }
]